KUIPER-00008            
1 63724U 25088A   25298.40049551  .00001539  00000+0  14512-3 0  9992
2 63724  51.8914 343.8089 0011351   9.4660 350.6523 14.99589420 27760
KUIPER-00009            
1 63725U 25088B   25298.51924644  .00002759  00000+0  38895-3 0  9995
2 63725  51.9023 344.3187 0012877  14.2128 345.9195 14.80123114 27761
KUIPER-00010            
1 63726U 25088C   25298.83336806 -.00001966  00000+0 -22054-3 0  9999
2 63726  51.8989 319.4174 0013118  66.7660 195.2450 14.81286782  4366
KUIPER-00011            
1 63727U 25088D   25298.80870201  .00002140  00000+0  30962-3 0  9999
2 63727  51.9025 327.1052 0013857  31.8893 328.2905 14.79944454 27789
KUIPER-00012            
1 63728U 25088E   25298.83336806  .00037103  00000+0  17122-2 0  9990
2 63728  51.8684 315.3134 0012086  23.4960 316.3595 15.19816371  1905
KUIPER-00013            
1 63729U 25088F   25296.56130926  .00008676  00000+0  11605-2 0  9997
2 63729  51.9026 354.4592 0007574 299.7490  60.2718 14.80106535 27261
KUIPER-00014            
1 63730U 25088G   25298.45033727 -.00001782  00000+0 -20427-3 0  9996
2 63730  51.9061 347.0744 0008329   9.9503 350.1623 14.79961707 27347
KUIPER-00015            
1 63731U 25088H   25298.54927470  .00003491  00000+0  46924-3 0  9991
2 63731  51.9003 358.2433 0010028 353.3156   6.7672 14.81492197 27659
