<?xml version="1.0" encoding="UTF-8"?>
<ndm xmlns:xsi="http://www.w3.org/2001/XMLSchema-instance" xsi:noNamespaceSchemaLocation="https://sanaregistry.org/r/ndmxml_unqualified/ndmxml-2.0.0-master-2.0.xsd">
<omm id="CCSDS_OMM_VERS" version="2.0">
<header><CREATION_DATE/><ORIGINATOR/></header><body><segment><metadata><OBJECT_NAME>KUIPER-00008</OBJECT_NAME><OBJECT_ID>2025-088A</OBJECT_ID><CENTER_NAME>EARTH</CENTER_NAME><REF_FRAME>TEME</REF_FRAME><TIME_SYSTEM>UTC</TIME_SYSTEM><MEAN_ELEMENT_THEORY>SGP4</MEAN_ELEMENT_THEORY></metadata><data><meanElements><EPOCH>2025-10-25T09:36:42.812064</EPOCH><MEAN_MOTION>14.99589420</MEAN_MOTION><ECCENTRICITY>.0011351</ECCENTRICITY><INCLINATION>51.8914</INCLINATION><RA_OF_ASC_NODE>343.8089</RA_OF_ASC_NODE><ARG_OF_PERICENTER>9.4660</ARG_OF_PERICENTER><MEAN_ANOMALY>350.6523</MEAN_ANOMALY></meanElements><tleParameters><EPHEMERIS_TYPE>0</EPHEMERIS_TYPE><CLASSIFICATION_TYPE>U</CLASSIFICATION_TYPE><NORAD_CAT_ID>63724</NORAD_CAT_ID><ELEMENT_SET_NO>999</ELEMENT_SET_NO><REV_AT_EPOCH>2776</REV_AT_EPOCH><BSTAR>.14512E-3</BSTAR><MEAN_MOTION_DOT>.1539E-4</MEAN_MOTION_DOT><MEAN_MOTION_DDOT>0</MEAN_MOTION_DDOT></tleParameters></data></segment></body></omm>
<omm id="CCSDS_OMM_VERS" version="2.0">
<header><CREATION_DATE/><ORIGINATOR/></header><body><segment><metadata><OBJECT_NAME>KUIPER-00009</OBJECT_NAME><OBJECT_ID>2025-088B</OBJECT_ID><CENTER_NAME>EARTH</CENTER_NAME><REF_FRAME>TEME</REF_FRAME><TIME_SYSTEM>UTC</TIME_SYSTEM><MEAN_ELEMENT_THEORY>SGP4</MEAN_ELEMENT_THEORY></metadata><data><meanElements><EPOCH>2025-10-25T12:27:42.892416</EPOCH><MEAN_MOTION>14.80123114</MEAN_MOTION><ECCENTRICITY>.0012877</ECCENTRICITY><INCLINATION>51.9023</INCLINATION><RA_OF_ASC_NODE>344.3187</RA_OF_ASC_NODE><ARG_OF_PERICENTER>14.2128</ARG_OF_PERICENTER><MEAN_ANOMALY>345.9195</MEAN_ANOMALY></meanElements><tleParameters><EPHEMERIS_TYPE>0</EPHEMERIS_TYPE><CLASSIFICATION_TYPE>U</CLASSIFICATION_TYPE><NORAD_CAT_ID>63725</NORAD_CAT_ID><ELEMENT_SET_NO>999</ELEMENT_SET_NO><REV_AT_EPOCH>2776</REV_AT_EPOCH><BSTAR>.38895E-3</BSTAR><MEAN_MOTION_DOT>.2759E-4</MEAN_MOTION_DOT><MEAN_MOTION_DDOT>0</MEAN_MOTION_DDOT></tleParameters></data></segment></body></omm>
<omm id="CCSDS_OMM_VERS" version="2.0">
<header><CREATION_DATE/><ORIGINATOR/></header><body><segment><metadata><OBJECT_NAME>KUIPER-00010</OBJECT_NAME><OBJECT_ID>2025-088C</OBJECT_ID><CENTER_NAME>EARTH</CENTER_NAME><REF_FRAME>TEME</REF_FRAME><TIME_SYSTEM>UTC</TIME_SYSTEM><MEAN_ELEMENT_THEORY>SGP4</MEAN_ELEMENT_THEORY></metadata><data><meanElements><EPOCH>2025-10-25T20:00:03.000384</EPOCH><MEAN_MOTION>14.81286782</MEAN_MOTION><ECCENTRICITY>.0013118</ECCENTRICITY><INCLINATION>51.8989</INCLINATION><RA_OF_ASC_NODE>319.4174</RA_OF_ASC_NODE><ARG_OF_PERICENTER>66.7660</ARG_OF_PERICENTER><MEAN_ANOMALY>195.2450</MEAN_ANOMALY></meanElements><tleParameters><EPHEMERIS_TYPE>0</EPHEMERIS_TYPE><CLASSIFICATION_TYPE>U</CLASSIFICATION_TYPE><NORAD_CAT_ID>63726</NORAD_CAT_ID><ELEMENT_SET_NO>999</ELEMENT_SET_NO><REV_AT_EPOCH>436</REV_AT_EPOCH><BSTAR>-.22054E-3</BSTAR><MEAN_MOTION_DOT>-.1966E-4</MEAN_MOTION_DOT><MEAN_MOTION_DDOT>0</MEAN_MOTION_DDOT></tleParameters></data></segment></body></omm>
<omm id="CCSDS_OMM_VERS" version="2.0">
<header><CREATION_DATE/><ORIGINATOR/></header><body><segment><metadata><OBJECT_NAME>KUIPER-00011</OBJECT_NAME><OBJECT_ID>2025-088D</OBJECT_ID><CENTER_NAME>EARTH</CENTER_NAME><REF_FRAME>TEME</REF_FRAME><TIME_SYSTEM>UTC</TIME_SYSTEM><MEAN_ELEMENT_THEORY>SGP4</MEAN_ELEMENT_THEORY></metadata><data><meanElements><EPOCH>2025-10-25T19:24:31.853664</EPOCH><MEAN_MOTION>14.79944454</MEAN_MOTION><ECCENTRICITY>.0013857</ECCENTRICITY><INCLINATION>51.9025</INCLINATION><RA_OF_ASC_NODE>327.1052</RA_OF_ASC_NODE><ARG_OF_PERICENTER>31.8893</ARG_OF_PERICENTER><MEAN_ANOMALY>328.2905</MEAN_ANOMALY></meanElements><tleParameters><EPHEMERIS_TYPE>0</EPHEMERIS_TYPE><CLASSIFICATION_TYPE>U</CLASSIFICATION_TYPE><NORAD_CAT_ID>63727</NORAD_CAT_ID><ELEMENT_SET_NO>999</ELEMENT_SET_NO><REV_AT_EPOCH>2778</REV_AT_EPOCH><BSTAR>.30962E-3</BSTAR><MEAN_MOTION_DOT>.214E-4</MEAN_MOTION_DOT><MEAN_MOTION_DDOT>0</MEAN_MOTION_DDOT></tleParameters></data></segment></body></omm>
<omm id="CCSDS_OMM_VERS" version="2.0">
<header><CREATION_DATE/><ORIGINATOR/></header><body><segment><metadata><OBJECT_NAME>KUIPER-00012</OBJECT_NAME><OBJECT_ID>2025-088E</OBJECT_ID><CENTER_NAME>EARTH</CENTER_NAME><REF_FRAME>TEME</REF_FRAME><TIME_SYSTEM>UTC</TIME_SYSTEM><MEAN_ELEMENT_THEORY>SGP4</MEAN_ELEMENT_THEORY></metadata><data><meanElements><EPOCH>2025-10-25T20:00:03.000384</EPOCH><MEAN_MOTION>15.19816371</MEAN_MOTION><ECCENTRICITY>.0012086</ECCENTRICITY><INCLINATION>51.8684</INCLINATION><RA_OF_ASC_NODE>315.3134</RA_OF_ASC_NODE><ARG_OF_PERICENTER>23.4960</ARG_OF_PERICENTER><MEAN_ANOMALY>316.3595</MEAN_ANOMALY></meanElements><tleParameters><EPHEMERIS_TYPE>0</EPHEMERIS_TYPE><CLASSIFICATION_TYPE>U</CLASSIFICATION_TYPE><NORAD_CAT_ID>63728</NORAD_CAT_ID><ELEMENT_SET_NO>999</ELEMENT_SET_NO><REV_AT_EPOCH>190</REV_AT_EPOCH><BSTAR>.17122E-2</BSTAR><MEAN_MOTION_DOT>.37103E-3</MEAN_MOTION_DOT><MEAN_MOTION_DDOT>0</MEAN_MOTION_DDOT></tleParameters></data></segment></body></omm>
<omm id="CCSDS_OMM_VERS" version="2.0">
<header><CREATION_DATE/><ORIGINATOR/></header><body><segment><metadata><OBJECT_NAME>KUIPER-00013</OBJECT_NAME><OBJECT_ID>2025-088F</OBJECT_ID><CENTER_NAME>EARTH</CENTER_NAME><REF_FRAME>TEME</REF_FRAME><TIME_SYSTEM>UTC</TIME_SYSTEM><MEAN_ELEMENT_THEORY>SGP4</MEAN_ELEMENT_THEORY></metadata><data><meanElements><EPOCH>2025-10-23T13:28:17.120064</EPOCH><MEAN_MOTION>14.80106535</MEAN_MOTION><ECCENTRICITY>.0007574</ECCENTRICITY><INCLINATION>51.9026</INCLINATION><RA_OF_ASC_NODE>354.4592</RA_OF_ASC_NODE><ARG_OF_PERICENTER>299.7490</ARG_OF_PERICENTER><MEAN_ANOMALY>60.2718</MEAN_ANOMALY></meanElements><tleParameters><EPHEMERIS_TYPE>0</EPHEMERIS_TYPE><CLASSIFICATION_TYPE>U</CLASSIFICATION_TYPE><NORAD_CAT_ID>63729</NORAD_CAT_ID><ELEMENT_SET_NO>999</ELEMENT_SET_NO><REV_AT_EPOCH>2726</REV_AT_EPOCH><BSTAR>.11605E-2</BSTAR><MEAN_MOTION_DOT>.8676E-4</MEAN_MOTION_DOT><MEAN_MOTION_DDOT>0</MEAN_MOTION_DDOT></tleParameters></data></segment></body></omm>
<omm id="CCSDS_OMM_VERS" version="2.0">
<header><CREATION_DATE/><ORIGINATOR/></header><body><segment><metadata><OBJECT_NAME>KUIPER-00014</OBJECT_NAME><OBJECT_ID>2025-088G</OBJECT_ID><CENTER_NAME>EARTH</CENTER_NAME><REF_FRAME>TEME</REF_FRAME><TIME_SYSTEM>UTC</TIME_SYSTEM><MEAN_ELEMENT_THEORY>SGP4</MEAN_ELEMENT_THEORY></metadata><data><meanElements><EPOCH>2025-10-25T10:48:29.140128</EPOCH><MEAN_MOTION>14.79961707</MEAN_MOTION><ECCENTRICITY>.0008329</ECCENTRICITY><INCLINATION>51.9061</INCLINATION><RA_OF_ASC_NODE>347.0744</RA_OF_ASC_NODE><ARG_OF_PERICENTER>9.9503</ARG_OF_PERICENTER><MEAN_ANOMALY>350.1623</MEAN_ANOMALY></meanElements><tleParameters><EPHEMERIS_TYPE>0</EPHEMERIS_TYPE><CLASSIFICATION_TYPE>U</CLASSIFICATION_TYPE><NORAD_CAT_ID>63730</NORAD_CAT_ID><ELEMENT_SET_NO>999</ELEMENT_SET_NO><REV_AT_EPOCH>2734</REV_AT_EPOCH><BSTAR>-.20427E-3</BSTAR><MEAN_MOTION_DOT>-.1782E-4</MEAN_MOTION_DOT><MEAN_MOTION_DDOT>0</MEAN_MOTION_DDOT></tleParameters></data></segment></body></omm>
<omm id="CCSDS_OMM_VERS" version="2.0">
<header><CREATION_DATE/><ORIGINATOR/></header><body><segment><metadata><OBJECT_NAME>KUIPER-00015</OBJECT_NAME><OBJECT_ID>2025-088H</OBJECT_ID><CENTER_NAME>EARTH</CENTER_NAME><REF_FRAME>TEME</REF_FRAME><TIME_SYSTEM>UTC</TIME_SYSTEM><MEAN_ELEMENT_THEORY>SGP4</MEAN_ELEMENT_THEORY></metadata><data><meanElements><EPOCH>2025-10-25T13:10:57.334080</EPOCH><MEAN_MOTION>14.81492197</MEAN_MOTION><ECCENTRICITY>.0010028</ECCENTRICITY><INCLINATION>51.9003</INCLINATION><RA_OF_ASC_NODE>358.2433</RA_OF_ASC_NODE><ARG_OF_PERICENTER>353.3156</ARG_OF_PERICENTER><MEAN_ANOMALY>6.7672</MEAN_ANOMALY></meanElements><tleParameters><EPHEMERIS_TYPE>0</EPHEMERIS_TYPE><CLASSIFICATION_TYPE>U</CLASSIFICATION_TYPE><NORAD_CAT_ID>63731</NORAD_CAT_ID><ELEMENT_SET_NO>999</ELEMENT_SET_NO><REV_AT_EPOCH>2765</REV_AT_EPOCH><BSTAR>.46924E-3</BSTAR><MEAN_MOTION_DOT>.3491E-4</MEAN_MOTION_DOT><MEAN_MOTION_DDOT>0</MEAN_MOTION_DDOT></tleParameters></data></segment></body></omm>

</ndm>
